MTI                     
1 26102U 00014A   14094.36313652  .00017106  00000-0  68988-3 0  9608
2 26102  97.4338 223.5374 0015232 137.8971 281.0302 15.24775303774777
CFESAT                  
1 30777U 07006F   14093.78436011  .00012290  00000-0  65673-3 0  8548
2 30777  35.4313 226.8355 0003240 313.1510  46.8671 15.14366131389293
NFIRE                   
1 31140U 07014A   14093.55027071  .00015978  00000-0  46943-3 0   322
2 31140  48.2185 235.6037 0018046 253.8206 201.5053 15.35012427394114
SPIRALE A               
1 33751U 09008C   14093.56341252  .00014099  00000-0  17018-2 0  4583
2 33751   2.0596 243.5526 5688759 278.7885  33.3920  4.53954277 57191
SPIRALE B               
1 33752U 09008D   14091.43676368  .00015225  00000-0  29393-2 0  2801
2 33752   1.8525 222.5017 7100294 316.0564  66.1243  2.51849185 44081
SAPPHIRE                
1 39088U 13009C   14094.01761256  .00000267  00000-0  11179-3 0  4067
2 39088  98.6211 288.2626 0011812 155.0360 205.1393 14.33867590 57667
